FLOCK 4G-15             
1 62678U 25009BX  26068.71779869  .00012647  00000+0  47575-3 0  9991
2 62678  97.4054 151.1927 0003699 316.8208  43.2740 15.27266411121358
STARLINK-36503          
1 67411U 26005H   26068.46708490  .00027643  00000+0  10101-2 0  9998
2 67411  42.9979 239.1310 0000710 206.9075 153.1740 15.27585072  8660
